#dP2021  5  9 18  0  0.00000000      96 __u+U ITR00 EXT  IAC
## 2157  64800.00000000   900.00000000 59343 0.7500000000000
+  116   C06C07C08C09C10C11C12C13C14C16C19C20C21C22C23C24C25
+        C26C27C28C29C30C32C33C34C35C36C37C38C39C40C41C42C43
+        C44C45C46E01E02E03E04E05E07E08E09E11E12E13E14E15E18
+        E19E21E24E25E26E27E30E31E33E36G01G02G03G04G05G06G07
+        G08G09G10G12G13G14G15G16G17G18G19G20G21G22G23G24G25
+        G26G27G28G29G30G31G32J01J02J03R01R02R03R04R05R07R08
+        R09R11R12R13R14R15R16R17R18R19R20R21R22R24  0  0  0
++        11  8  8 10 10  8  6  9  9 10  8  7  8  8  8  7  9
++         8  9 10  9  8  8  8  8  9  7 10  9 11 11  7  8  8
++         7  8 10  7  7  8  7  7  8  8  9  7  7  6  8  7  9
++         7  7  8  7  7  6  8  7  8  6  7  8  7  8  7  7  7
++         7  6  8  7  7  7  6  7  7  7  7  7  8  8  7  7  5
++         7  7  8  7  8  7  6 11  9  9  8  8  9  7  9  7  7
++        11  9  8  9  7  9  9  9  7  9 10  7  9  9  0  0  0
%c M  cc GPS ccc cccc cccc cccc cccc ccccc ccccc ccccc ccccc
%c cc cc ccc ccc cccc cccc cccc cccc ccccc ccccc ccccc ccccc
%f  0.0000000  0.000000000  0.00000000000  0.000000000000000
%f  0.0000000  0.000000000  0.00000000000  0.000000000000000
%i    0    0    0    0      0      0      0      0         0
%i    0    0    0    0      0      0      0      0         0
/* IAC                                ULTRA-RAPID PREDICTION
/* S/V CLOCKS ARE ALIGNED TO GNSS TIME                      
/* G:C1WC2W R:C1PC2P E:C1XC5X C:C2IC6I J:C1CC2S             
/* PCV:IGS14_2148 OL/AL:FES2004  NONE     YN ORB:CoN CLK:CoN
*  2021 05 10  3 15  0.00000000
PC06 -10058.039453  35381.381003 -19683.548594    367.385514
PC07 -15625.622844  22512.568807  32225.439272   -206.190445
PC08 -25698.167614  30696.102830 -13710.641390   -890.258951
PC09   -889.368745  41481.281087  -5718.671267    535.176545
PC10   1423.521056  27639.013793  32093.226400    -44.863670
PC11  -4400.224157 -26708.473294   6764.087999    332.007887
PC12   6871.737607 -24761.106419 -10833.881018    890.602734
PC13 -13939.529988  31640.822161 -24198.221016    254.647504
PC14 -11828.998476 -19308.180127  16300.730233    688.865182
PC16  -7485.144042  37393.592312 -17610.808252   -828.886229
PC19  20152.934627  17425.174856  -8310.404920    829.121946
PC20   3618.041560  18288.355965 -20753.209079   -923.891742
PC21  15993.691095  -8180.750951  21385.381951   -942.706958
PC22  25507.991462   6499.350738   9324.981886   -957.952121
PC23 -24124.051807   3050.962060 -13687.100476   -903.713705
PC24   8306.584069 -19816.372500 -17802.414856   -844.442151
PC25 -12217.726608 -11205.378863 -22454.818132   -919.473514
PC26  21835.579508 -16953.223238  -3692.641675    909.269351
PC27 -12143.214195  17740.459057  17759.756739    529.113781
PC28 -15788.966177  -2755.795094  22843.405334    -76.300142
PC29  10989.884832  21170.026756 -14490.151525    390.160732
PC30   -705.575393  27742.037044   2799.548094    466.352969
PC32 -15906.577636   8305.916479 -21346.010154   -935.568820
PC33 -20137.167349 -17370.701280   8432.504415   -939.336938
PC34    311.461827 -27840.153591  -2109.548255   -677.006054
PC35  15938.188355   2562.237554 -22768.352838   -288.123797
PC36  11599.792526  11749.080324  22521.760638   -727.302207
PC37 -22669.623226  16039.796492   2850.865619   -896.478459
PC38 -20821.221606  32353.841655 -17371.413182    147.710408
PC39  -3249.273979  38925.515793 -15645.423930     30.967663
PC40  -3835.611243  22604.754091  35412.239063    159.418893
PC41 -25549.959139  -6675.385449  -8969.355946   -944.800453
PC42  -2728.173341 -18132.793743  21079.151013   -916.432736
PC43 -10690.680444 -21635.733928  14025.674071   -723.213469
PC44  11741.340278 -17999.478403 -17832.344779    180.034569
PC45  24109.106417  -3238.727021  13664.212375    436.010294
PC46  -7375.205747  19632.618115  18430.559983    278.095033
PE01 -17991.845909  13969.578789  18902.225339  -1104.518545
PE02  17858.901489 -14019.077687 -18988.475360    217.991561
PE03   7219.088583 -17809.697690  22515.323599   -429.230427
PE04   9281.411061  26293.767027  -9924.486608   -767.650703
PE05  19710.888123   1253.958468  22056.722738   -282.209582
PE07 -20574.044429 -19392.868687  -8732.946728   -535.801649
PE08  -9686.966904 -26226.458762   9709.084691   6004.584863
PE09  20692.577307  19200.323433   8945.286835   5673.039218
PE11  12364.893693  11196.310963 -24459.841652   5999.102805
PE12  -2250.503421  25966.957224 -14009.054052   5218.381802
PE13 -12053.793068 -11587.224627  24428.925557    416.181003
PE14  20211.842994  -4320.331019 -24874.877166  -1425.676987
PE15   2189.188271 -25964.270351  14058.107464    815.104456
PE18 -11869.887939  10849.646149  17811.157246  -1560.379025
PE19  -8908.835353  15935.456095 -23287.508874    273.023434
PE21 -29165.137508   4077.257373   2995.217183   -664.030806
PE24  23269.113293   9184.922735  15792.560869   -891.778499
PE25  29199.675246  -3951.509213  -2805.259203   -533.365587
PE26 -19411.691961  10263.042932  19849.556567   1828.604825
PE27 -23885.114408  -8603.337338 -15226.108515    -29.064378
PE30  -3452.713388 -16352.152170 -24441.971483   2957.975828
PE31   4595.630875  16147.105559  24382.741705   -481.004909
PE33 -15119.811546  25024.674974   4574.557534   -468.430776
PE36  19185.049165  -9610.076111 -20395.064132   -204.987949
PG01 -13563.072776  22254.660441  -4281.023233    693.507065
PG02  18805.096620  -8486.384412 -16103.241144   -602.918685
PG03 -10036.391290  13170.261763 -20822.871780   -159.744504
PG04  -3923.476427  20861.507820 -15920.949864   -195.634286
PG05  23545.298728  -5715.754149  10944.442772    -41.487827
PG06  14612.717977   4556.668184 -21656.337399     14.299801
PG07  -2086.285941  21232.986856  15847.429095    146.482639
PG08  -9992.943329  12933.144585  20861.849636    -20.653434
PG09   5610.248433  24992.782710  -7040.374669   -344.512257
PG10 -19789.306602 -11786.103163  13573.730573   -118.847561
PG12  13108.535214 -11463.507804 -20267.884777    -38.997300
PG13  14575.154175  -3557.605117  21786.317043    130.120004
PG14  18757.930310  12931.866882  13666.113225     87.800898
PG15   8966.079938 -14451.870113  19960.378107   -150.463218
PG16 -25622.074706   -262.290075   7594.859501   -322.738505
PG17  13203.905151  21478.618603  -7920.114268    439.923711
PG18   -368.320935 -19498.078336  17992.109709    350.724899
PG19  15657.172746  14685.277254 -16000.860578     -2.007026
PG20  13236.608743 -13732.145958  18314.244824    522.342554
PG21 -17033.972448  19502.815529   5296.831377    117.039744
PG22 -19118.172674  10496.368915 -14831.861438   -618.101772
PG23  -8949.395939 -14885.607487  20087.282094    107.928269
PG24  15213.411225 -21442.644735   1427.098764     68.008777
PG25  -1252.633647 -15501.668666 -21815.861793    134.311307
PG26 -26377.490998  -3641.636553  -2119.413962     83.288619
PG27 -15539.917438    457.655252  21410.731010   -127.395166
PG28  21795.257412  11724.907866   9932.482191    573.784539
PG29  -3613.329631 -25324.516060  -7104.020214   -344.420457
PG30   9505.915353  12998.139740  21154.069042   -424.031425
PG31 -16994.769280  -1883.248350 -20520.477232   -116.403762
PG32 -15757.935010 -19051.882065  -9819.740952     21.463178
PJ01 -24390.072739  16456.892031 -25610.651344   -376.642905
PJ02 -29754.169208  25765.551017  20066.976178      7.683816
PJ03 -27520.619924  26001.430206  23576.022221     -5.104847
PR01  20624.290689   8591.743924  12332.094049     79.192744
PR02   8284.840492  -7282.374899  23044.265772    478.003017
PR03  -7520.608785 -16959.840839  17579.930593     35.653425
PR04 -18914.242105 -16959.261048   2361.820319     86.093024
PR05 -19752.784024  -7651.763130 -14208.961046     71.439621
PR07   8067.560508  17102.812289 -17054.037210    -42.494110
PR08  18990.974777  16873.363015  -2137.342624    -58.945578
PR09 -19680.417275  12917.590222   9747.241120     -7.911516
PR11  13081.567098   5542.556648  21197.615642     -3.237960
PR12  23682.336627  -5002.598169   8043.899448    227.644182
PR13  20136.595967 -12696.367961  -9184.457071    -54.533600
PR14   4384.411434 -12847.099988 -21589.757191     64.082117
PR15 -13455.388018  -5563.654375 -20926.068671    103.912177
PR16 -23828.153398   6109.409029  -7016.830711    -14.921079
PR17   2663.059998 -25127.877762   3367.306952    422.746998
PR18  -5264.290729 -17211.311899  18113.076059     75.964739
PR19 -10298.381171  -1232.120679  23299.923251   -143.102018
PR20 -10159.618114  18542.119505  14237.455645    -48.831078
PR21  -2190.609838  25007.783882  -4592.174433   -207.810255
PR22   5640.083228  16210.588678 -18844.961824   -111.954892
PR24   9968.183555 -19204.985629 -13489.792781     42.027823
EOF
